CCSDS_OMM_VERS = 2.0
CREATION_DATE  = 
ORIGINATOR     = 

OBJECT_NAME    = ALOS (DAICHI)
OBJECT_ID      = 2006-002A
CENTER_NAME    = EARTH
REF_FRAME      = TEME
TIME_SYSTEM    = UTC
MEAN_ELEMENT_THEORY = SGP/SGP4

EPOCH          = 2025-12-15T08:25:26.275584
MEAN_MOTION    = 14.69496436
ECCENTRICITY   = .00012894
INCLINATION    = 98.1091
RA_OF_ASC_NODE = 300.8200
ARG_OF_PERICENTER = 114.9500
MEAN_ANOMALY   = 245.1840

EPHEMERIS_TYPE = 0
CLASSIFICATION_TYPE = U
NORAD_CAT_ID   = 28931
ELEMENT_SET_NO = 999
REV_AT_EPOCH   = 6109
BSTAR          = .20698569E-3
MEAN_MOTION_DOT = .1178E-4
MEAN_MOTION_DDOT = 0

CCSDS_OMM_VERS = 2.0
CREATION_DATE  = 
ORIGINATOR     = 

OBJECT_NAME    = H-2A R/B
OBJECT_ID      = 2006-002B
CENTER_NAME    = EARTH
REF_FRAME      = TEME
TIME_SYSTEM    = UTC
MEAN_ELEMENT_THEORY = SGP/SGP4

EPOCH          = 2025-12-15T08:41:10.320864
MEAN_MOTION    = 15.14628537
ECCENTRICITY   = .00546253
INCLINATION    = 98.2309
RA_OF_ASC_NODE = 124.3242
ARG_OF_PERICENTER = 167.3510
MEAN_ANOMALY   = 192.9105

EPHEMERIS_TYPE = 0
CLASSIFICATION_TYPE = U
NORAD_CAT_ID   = 28932
ELEMENT_SET_NO = 999
REV_AT_EPOCH   = 8166
BSTAR          = .35532971E-3
MEAN_MOTION_DOT = .6735E-4
MEAN_MOTION_DDOT = 0

CCSDS_OMM_VERS = 2.0
CREATION_DATE  = 
ORIGINATOR     = 

OBJECT_NAME    = RESURS-DK 1
OBJECT_ID      = 2006-021A
CENTER_NAME    = EARTH
REF_FRAME      = TEME
TIME_SYSTEM    = UTC
MEAN_ELEMENT_THEORY = SGP/SGP4

EPOCH          = 2025-12-15T08:15:25.086240
MEAN_MOTION    = 15.12177088
ECCENTRICITY   = .00070005
INCLINATION    = 69.9335
RA_OF_ASC_NODE = 95.1081
ARG_OF_PERICENTER = 257.1339
MEAN_ANOMALY   = 102.9045

EPHEMERIS_TYPE = 0
CLASSIFICATION_TYPE = U
NORAD_CAT_ID   = 29228
ELEMENT_SET_NO = 999
REV_AT_EPOCH   = 7477
BSTAR          = .13453081E-3
MEAN_MOTION_DOT = .222E-4
MEAN_MOTION_DDOT = 0

CCSDS_OMM_VERS = 2.0
CREATION_DATE  = 
ORIGINATOR     = 

OBJECT_NAME    = CZ-4B R/B
OBJECT_ID      = 2006-046C
CENTER_NAME    = EARTH
REF_FRAME      = TEME
TIME_SYSTEM    = UTC
MEAN_ELEMENT_THEORY = SGP/SGP4

EPOCH          = 2025-12-15T01:54:26.189856
MEAN_MOTION    = 15.15897769
ECCENTRICITY   = .00334737
INCLINATION    = 97.5737
RA_OF_ASC_NODE = 29.2115
ARG_OF_PERICENTER = 198.2659
MEAN_ANOMALY   = 161.7374

EPHEMERIS_TYPE = 0
CLASSIFICATION_TYPE = U
NORAD_CAT_ID   = 29507
ELEMENT_SET_NO = 999
REV_AT_EPOCH   = 4722
BSTAR          = .20940458E-3
MEAN_MOTION_DOT = .3996E-4
MEAN_MOTION_DDOT = 0

CCSDS_OMM_VERS = 2.0
CREATION_DATE  = 
ORIGINATOR     = 

OBJECT_NAME    = CZ-2C R/B
OBJECT_ID      = 2007-010B
CENTER_NAME    = EARTH
REF_FRAME      = TEME
TIME_SYSTEM    = UTC
MEAN_ELEMENT_THEORY = SGP/SGP4

EPOCH          = 2025-12-15T07:48:39.286080
MEAN_MOTION    = 14.20211037
ECCENTRICITY   = .00591346
INCLINATION    = 98.3975
RA_OF_ASC_NODE = 101.8461
ARG_OF_PERICENTER = 178.4685
MEAN_ANOMALY   = 181.6684

EPHEMERIS_TYPE = 0
CLASSIFICATION_TYPE = U
NORAD_CAT_ID   = 31114
ELEMENT_SET_NO = 999
REV_AT_EPOCH   = 96774
BSTAR          = .88358396E-4
MEAN_MOTION_DOT = .151E-5
MEAN_MOTION_DDOT = 0

CCSDS_OMM_VERS = 2.0
CREATION_DATE  = 
ORIGINATOR     = 

OBJECT_NAME    = COSMO-SKYMED 1
OBJECT_ID      = 2007-023A
CENTER_NAME    = EARTH
REF_FRAME      = TEME
TIME_SYSTEM    = UTC
MEAN_ELEMENT_THEORY = SGP/SGP4

EPOCH          = 2025-12-15T09:31:52.655808
MEAN_MOTION    = 14.95786014
ECCENTRICITY   = .00014179
INCLINATION    = 97.8834
RA_OF_ASC_NODE = 174.8134
ARG_OF_PERICENTER = 89.2750
MEAN_ANOMALY   = 270.8633

EPHEMERIS_TYPE = 0
CLASSIFICATION_TYPE = U
NORAD_CAT_ID   = 31598
ELEMENT_SET_NO = 999
REV_AT_EPOCH   = 230
BSTAR          = .33694417E-3
MEAN_MOTION_DOT = .37E-4
MEAN_MOTION_DDOT = 0

CCSDS_OMM_VERS = 2.0
CREATION_DATE  = 
ORIGINATOR     = 

OBJECT_NAME    = COSMOS 2428
OBJECT_ID      = 2007-029A
CENTER_NAME    = EARTH
REF_FRAME      = TEME
TIME_SYSTEM    = UTC
MEAN_ELEMENT_THEORY = SGP/SGP4

EPOCH          = 2025-12-15T08:35:21.613920
MEAN_MOTION    = 14.12890533
ECCENTRICITY   = .00038051
INCLINATION    = 70.9367
RA_OF_ASC_NODE = 20.3830
ARG_OF_PERICENTER = 19.7772
MEAN_ANOMALY   = 340.3496

EPHEMERIS_TYPE = 0
CLASSIFICATION_TYPE = U
NORAD_CAT_ID   = 31792
ELEMENT_SET_NO = 999
REV_AT_EPOCH   = 95218
BSTAR          = .88069706E-4
MEAN_MOTION_DOT = .116E-5
MEAN_MOTION_DDOT = 0

CCSDS_OMM_VERS = 2.0
CREATION_DATE  = 
ORIGINATOR     = 

OBJECT_NAME    = SL-16 R/B
OBJECT_ID      = 2007-029B
CENTER_NAME    = EARTH
REF_FRAME      = TEME
TIME_SYSTEM    = UTC
MEAN_ELEMENT_THEORY = SGP/SGP4

EPOCH          = 2025-12-15T08:47:24.201312
MEAN_MOTION    = 14.14814655
ECCENTRICITY   = .0002075
INCLINATION    = 70.9755
RA_OF_ASC_NODE = 349.6364
ARG_OF_PERICENTER = 261.7116
MEAN_ANOMALY   = 197.7132

EPHEMERIS_TYPE = 0
CLASSIFICATION_TYPE = U
NORAD_CAT_ID   = 31793
ELEMENT_SET_NO = 999
REV_AT_EPOCH   = 95344
BSTAR          = .33421118E-4
MEAN_MOTION_DOT = .17E-6
MEAN_MOTION_DDOT = 0

CCSDS_OMM_VERS = 2.0
CREATION_DATE  = 
ORIGINATOR     = 

OBJECT_NAME    = KORONAS-FOTON
OBJECT_ID      = 2009-003A
CENTER_NAME    = EARTH
REF_FRAME      = TEME
TIME_SYSTEM    = UTC
MEAN_ELEMENT_THEORY = SGP/SGP4

EPOCH          = 2025-12-15T02:12:07.858368
MEAN_MOTION    = 15.41252618
ECCENTRICITY   = .0013372
INCLINATION    = 82.4311
RA_OF_ASC_NODE = 3.6690
ARG_OF_PERICENTER = 101.0111
MEAN_ANOMALY   = 259.2640

EPHEMERIS_TYPE = 0
CLASSIFICATION_TYPE = U
NORAD_CAT_ID   = 33504
ELEMENT_SET_NO = 999
REV_AT_EPOCH   = 93270
BSTAR          = .21247112E-3
MEAN_MOTION_DOT = .8897E-4
MEAN_MOTION_DDOT = 0

CCSDS_OMM_VERS = 2.0
CREATION_DATE  = 
ORIGINATOR     = 

OBJECT_NAME    = CZ-2C R/B
OBJECT_ID      = 2011-030B
CENTER_NAME    = EARTH
REF_FRAME      = TEME
TIME_SYSTEM    = UTC
MEAN_ELEMENT_THEORY = SGP/SGP4

EPOCH          = 2025-12-15T09:12:32.918976
MEAN_MOTION    = 14.80911871
ECCENTRICITY   = .00512886
INCLINATION    = 97.8411
RA_OF_ASC_NODE = 303.4318
ARG_OF_PERICENTER = 264.7633
MEAN_ANOMALY   = 261.4147

EPHEMERIS_TYPE = 0
CLASSIFICATION_TYPE = U
NORAD_CAT_ID   = 37731
ELEMENT_SET_NO = 999
REV_AT_EPOCH   = 77761
BSTAR          = .17716936E-3
MEAN_MOTION_DOT = .1345E-4
MEAN_MOTION_DDOT = 0

CCSDS_OMM_VERS = 2.0
CREATION_DATE  = 
ORIGINATOR     = 

OBJECT_NAME    = H-2A R/B
OBJECT_ID      = 2012-025E
CENTER_NAME    = EARTH
REF_FRAME      = TEME
TIME_SYSTEM    = UTC
MEAN_ELEMENT_THEORY = SGP/SGP4

EPOCH          = 2025-12-15T07:37:46.451136
MEAN_MOTION    = 14.94471535
ECCENTRICITY   = .00437944
INCLINATION    = 98.4603
RA_OF_ASC_NODE = 304.7470
ARG_OF_PERICENTER = 227.5974
MEAN_ANOMALY   = 132.1535

EPHEMERIS_TYPE = 0
CLASSIFICATION_TYPE = U
NORAD_CAT_ID   = 38341
ELEMENT_SET_NO = 999
REV_AT_EPOCH   = 73561
BSTAR          = .18422154E-3
MEAN_MOTION_DOT = .1955E-4
MEAN_MOTION_DDOT = 0

CCSDS_OMM_VERS = 2.0
CREATION_DATE  = 
ORIGINATOR     = 

OBJECT_NAME    = SHIJIAN-16 (SJ-16)
OBJECT_ID      = 2013-057A
CENTER_NAME    = EARTH
REF_FRAME      = TEME
TIME_SYSTEM    = UTC
MEAN_ELEMENT_THEORY = SGP/SGP4

EPOCH          = 2025-12-15T08:26:13.762752
MEAN_MOTION    = 14.91993259
ECCENTRICITY   = .00176778
INCLINATION    = 74.9733
RA_OF_ASC_NODE = 344.7136
ARG_OF_PERICENTER = 313.6333
MEAN_ANOMALY   = 46.3388

EPHEMERIS_TYPE = 0
CLASSIFICATION_TYPE = U
NORAD_CAT_ID   = 39358
ELEMENT_SET_NO = 999
REV_AT_EPOCH   = 65892
BSTAR          = .15899667E-3
MEAN_MOTION_DOT = .1587E-4
MEAN_MOTION_DDOT = 0

