ALOS (DAICHI)           
1 28931U 06002A   25349.35099856  .00001178  00000+0  20699-3 0  9994
2 28931  98.1091 300.8200 0001289 114.9500 245.1840 14.69496436 61098
H-2A R/B                
1 28932U 06002B   25349.36192501  .00006735  00000+0  35533-3 0  9994
2 28932  98.2309 124.3242 0054625 167.3510 192.9105 15.14628537 81660
RESURS-DK 1             
1 29228U 06021A   25349.34404035  .00002220  00000+0  13453-3 0  9992
2 29228  69.9335  95.1081 0007000 257.1339 102.9045 15.12177088 74777
CZ-4B R/B               
1 29507U 06046C   25349.07946979  .00003996  00000+0  20940-3 0  9997
2 29507  97.5737  29.2115 0033473 198.2659 161.7374 15.15897769 47225
CZ-2C R/B               
1 31114U 07010B   25349.32545470  .00000151  00000+0  88358-4 0  9993
2 31114  98.3975 101.8461 0059134 178.4685 181.6684 14.20211037967743
COSMO-SKYMED 1          
1 31598U 07023A   25349.39713722  .00003700  00000+0  33694-3 0  9992
2 31598  97.8834 174.8134 0001417  89.2750 270.8633 14.95786014  2308
COSMOS 2428             
1 31792U 07029A   25349.35788905  .00000116  00000+0  88070-4 0  9992
2 31792  70.9367  20.3830 0003805  19.7772 340.3496 14.12890533952181
SL-16 R/B               
1 31793U 07029B   25349.36625233  .00000017  00000+0  33421-4 0  9998
2 31793  70.9755 349.6364 0002075 261.7116 197.7132 14.14814655953445
KORONAS-FOTON           
1 33504U 09003A   25349.09175762  .00008897  00000+0  21247-3 0  9997
2 33504  82.4311   3.6690 0013372 101.0111 259.2640 15.41252618932705
CZ-2C R/B               
1 37731U 11030B   25349.38371434  .00001345  00000+0  17717-3 0  9990
2 37731  97.8411 303.4318 0051288 264.7633 261.4147 14.80911871777613
H-2A R/B                
1 38341U 12025E   25349.31789874  .00001955  00000+0  18422-3 0  9998
2 38341  98.4603 304.7470 0043794 227.5974 132.1535 14.94471535735614
SHIJIAN-16 (SJ-16)      
1 39358U 13057A   25349.35154818  .00001587  00000+0  15900-3 0  9990
2 39358  74.9733 344.7136 0017677 313.6333  46.3388 14.91993259658925
